     2.100          NAVIGATION                              RINEX VERSION / TYPE
fic2rin                                 05/05/2013 00:14:44 PGM / RUN BY / DATE
                                                            END OF HEADER
29 13  5  4  6  0  0.0  .432310160249D-03  .363797880709D-11  .000000000000D+00
     .900000000000D+02 -.514375000000D+02  .474984070707D-08  .166896251574D+01
    -.269897282124D-05  .193891907111D-02  .617839396000D-05  .515365457916D+04
     .540000000000D+06  .186264514923D-08 -.196585879069D+01 -.298023223877D-07
     .965631850511D+00  .266687500000D+03 -.104755371957D+01 -.820105589261D-08
    -.119647840956D-09  .100000000000D+01  .173800000000D+04  .000000000000D+00
     .240000000000D+01  .000000000000D+00 -.931322574615D-08  .900000000000D+02
     .532806000000D+06  .400000000000D+01
30 13  5  4  6  0  0.0  .551203265786D-05 -.693489710102D-11  .000000000000D+00
     .990000000000D+02  .369375000000D+02  .453554606656D-08 -.117051829955D+01
     .219233334064D-05  .109873540932D-01  .693649053574D-05  .515365237427D+04
     .540000000000D+06 -.912696123123D-07  .312148738422D+01  .135973095894D-06
     .963945799389D+00  .250218750000D+03  .161544666684D+01 -.831998941810D-08
     .452518849226D-09  .100000000000D+01  .173800000000D+04  .000000000000D+00
     .480000000000D+02  .630000000000D+02 -.419095158577D-08  .990000000000D+02
     .532806000000D+06  .400000000000D+01
31 13  5  4  6  0  0.0  .313066877425D-03  .136424205266D-11  .000000000000D+00
     .200000000000D+02  .312500000000D+00  .376944272671D-08  .229378556375D+01
     .160187482834D-06  .790660863277D-02  .100843608379D-04  .515358810616D+04
     .540000000000D+06  .558793544769D-08  .219947210708D+01  .633299350739D-07
     .980387253339D+00  .194875000000D+03 -.739411886559D+00 -.760960268478D-08
    -.989326923723D-10  .100000000000D+01  .173800000000D+04  .000000000000D+00
     .240000000000D+01  .000000000000D+00 -.130385160446D-07  .200000000000D+02
     .532806000000D+06  .400000000000D+01
32 13  5  4  6  0  0.0 -.554146245122D-03 -.216004991671D-11  .000000000000D+00
     .710000000000D+02  .658437500000D+02  .492627662777D-08  .283217456646D+01
     .334717333317D-05  .115557549288D-01  .680610537529D-05  .515370361710D+04
     .540000000000D+06 -.119209289551D-06  .166930008116D+00  .167638063431D-06
     .949794491027D+00  .241281250000D+03 -.366233458522D+00 -.820427031222D-08
     .996470078407D-10  .100000000000D+01  .173800000000D+04  .000000000000D+00
     .240000000000D+01  .000000000000D+00 -.279396772385D-08  .710000000000D+02
     .532806000000D+06  .400000000000D+01
 9 13  5  4  5 59 44.0  .238484703004D-03  .261479726760D-11  .000000000000D+00
     .280000000000D+02 -.175312500000D+02  .363586573412D-08  .288094128734D+01
    -.787898898125D-06  .173681637971D-01  .101514160633D-04  .515279585266D+04
     .539984000000D+06  .189989805222D-06  .217166531133D+01  .000000000000D+00
     .984008269631D+00  .192187500000D+03  .165367625505D+01 -.740209404121D-08
    -.102504269714D-09  .100000000000D+01  .173800000000D+04  .000000000000D+00
     .240000000000D+01  .000000000000D+00 -.558793544769D-08  .280000000000D+02
     .532986000000D+06  .400000000000D+01
 6 13  5  4  5 59 44.0  .247029587626D-03 -.161435309565D-10  .000000000000D+00
     .400000000000D+01 -.520625000000D+02  .539701052144D-08 -.532558381777D+00
    -.283680856228D-05  .802906427998D-02  .550970435143D-05  .515367580032D+04
     .539984000000D+06  .372529029846D-07 -.207722000478D+01 -.102445483208D-06
     .940704924570D+00  .261375000000D+03 -.335435577541D+00 -.866250368519D-08
    -.403588239642D-10  .100000000000D+01  .173800000000D+04  .000000000000D+00
     .240000000000D+01  .000000000000D+00 -.512227416039D-08  .400000000000D+01
     .533496000000D+06  .400000000000D+01
 6 13  5  4  7 59 44.0  .246913637966D-03 -.161435309565D-10  .000000000000D+00
     .500000000000D+01 -.513750000000D+02  .533557939116D-08  .517581548743D+00
    -.273436307907D-05  .802988419309D-02  .515207648277D-05  .515367737007D+04
     .547184000000D+06  .121071934700D-06 -.207728233826D+01 -.726431608200D-07
     .940704699281D+00  .269281250000D+03 -.335389758947D+00 -.863321675099D-08
    -.539308178636D-10  .100000000000D+01  .173800000000D+04  .000000000000D+00
     .240000000000D+01  .000000000000D+00 -.512227416039D-08  .500000000000D+01
     .540006000000D+06  .400000000000D+01
25 13  5  4  7 59 44.0  .939588062465D-04  .409272615798D-11  .000000000000D+00
     .540000000000D+02  .351875000000D+02  .423446209663D-08  .223563739646D+01
     .187568366528D-05  .255197274964D-02  .699423253536D-05  .515354900932D+04
     .547184000000D+06 -.912696123123D-07 -.306780145354D+01 -.223517417908D-07
     .972947031926D+00  .248843750000D+03  .611415337983D+00 -.805069248651D-08
     .442518432669D-09  .100000000000D+01  .173800000000D+04  .000000000000D+00
     .240000000000D+01  .000000000000D+00  .558793544769D-08  .540000000000D+02
     .540006000000D+06  .400000000000D+01
 1 13  5  4  8  0  0.0  .224965624511D-04  .386535248253D-11  .000000000000D+00
     .830000000000D+02 -.615625000000D+01  .447732935588D-08 -.226387878860D+01
    -.456348061562D-06  .180041068234D-02  .118501484394D-04  .515370415115D+04
     .547200000000D+06 -.130385160446D-07 -.965716443749D+00 -.372529029846D-07
     .960068896780D+00  .150562500000D+03  .271324225537D+00 -.793783064251D-08
    -.182150444440D-10  .100000000000D+01  .173800000000D+04  .000000000000D+00
     .240000000000D+01  .000000000000D+00  .838190317154D-08  .830000000000D+02
     .540006000000D+06  .400000000000D+01
 2 13  5  4  8  0  0.0  .430453568697D-03  .193267624127D-11  .000000000000D+00
     .560000000000D+02 -.301250000000D+02  .500663711796D-08 -.150835006961D+01
    -.154599547386D-05  .123357104603D-01  .110119581223D-04  .515365615845D+04
     .547200000000D+06  .167638063431D-06 -.986851989272D+00 -.113621354103D-06
     .938570369097D+00  .152625000000D+03 -.260947984886D+01 -.813998192006D-08
     .750031241812D-10  .100000000000D+01  .173800000000D+04  .000000000000D+00
     .240000000000D+01  .000000000000D+00 -.176951289177D-07  .560000000000D+02
     .540006000000D+06  .400000000000D+01
 3 13  5  4  8  0  0.0  .202334485948D-03  .488853402203D-11  .000000000000D+00
     .670000000000D+02 -.400625000000D+02  .547594238069D-08 -.133131368651D+01
    -.168010592461D-05  .161585123278D-01  .503472983837D-05  .515368608093D+04
     .547200000000D+06  .111758708954D-06 -.215658033793D+01  .370666384697D-06
     .934107525374D+00  .264968750000D+03  .128406927379D+01 -.866214652746D-08
    -.928610108910D-11  .100000000000D+01  .173800000000D+04  .000000000000D+00
     .340000000000D+01  .000000000000D+00 -.465661287308D-08  .670000000000D+02
     .540006000000D+06  .400000000000D+01
 4 13  5  4  8  0  0.0  .208413694054D-03  .104591890704D-10  .000000000000D+00
     .980000000000D+02 -.290312500000D+02  .506521098637D-08  .170636846791D+01
    -.148825347424D-05  .102989672450D-01  .118371099234D-04  .515379111862D+04
     .547200000000D+06 -.264495611191D-06 -.970373495700D+00 -.838190317154D-07
     .937615105536D+00  .142312500000D+03  .974466857519D+00 -.827105880851D-08
    -.485734518507D-10  .100000000000D+01  .173800000000D+04  .000000000000D+00
     .240000000000D+01  .000000000000D+00 -.605359673500D-08  .980000000000D+02
     .540006000000D+06  .400000000000D+01
 5 13  5  4  8  0  0.0 -.393623486161D-03 -.113686837722D-11  .000000000000D+00
     .960000000000D+02  .620000000000D+02  .505056751927D-08  .670105383299D+00
     .336579978466D-05  .302945077419D-02  .740215182304D-05  .515360693741D+04
     .547200000000D+06  .745058059692D-08  .780155457063D-01 -.465661287308D-07
     .949247072934D+00  .226375000000D+03  .283734730142D+00 -.839784980415D-08
     .128933942045D-09  .100000000000D+01  .173800000000D+04  .000000000000D+00
     .340000000000D+01  .000000000000D+00 -.102445483208D-07  .960000000000D+02
     .540006000000D+06  .400000000000D+01
 7 13  5  4  8  0  0.0  .209908932447D-03  .432009983342D-11  .000000000000D+00
     .107000000000D+03  .118750000000D+01  .386980405001D-08 -.288525002874D+01
     .447034835815D-07  .627999485005D-02  .109802931547D-04  .515369920540D+04
     .547200000000D+06 -.372529029846D-07  .219498905314D+01 -.298023223877D-07
     .975382234619D+00  .175625000000D+03 -.293745445350D+01 -.771817863598D-08
    -.350014579512D-10  .100000000000D+01  .173800000000D+04  .000000000000D+00
     .340000000000D+01  .000000000000D+00 -.107102096081D-07  .107000000000D+03
     .540006000000D+06  .400000000000D+01
 8 13  5  4  8  0  0.0  .597583130002D-05  .227373675443D-12  .000000000000D+00
     .210000000000D+02  .393750000000D+01  .338406953151D-08  .284874823894D+01
     .150874257088D-06  .128741811495D-01  .116117298603D-04  .515373151970D+04
     .547200000000D+06 -.135973095894D-06  .228574840886D+01 -.856816768646D-07
     .998124312890D+00  .173093750000D+03 -.287815536613D+01 -.739137930919D-08
     .142863093678D-11  .100000000000D+01  .173800000000D+04  .000000000000D+00
     .240000000000D+01  .000000000000D+00 -.419095158577D-08  .210000000000D+02
     .540006000000D+06  .400000000000D+01
 9 13  5  4  8  0  0.0  .238503329456D-03  .261479726760D-11  .000000000000D+00
     .290000000000D+02 -.112500000000D+02  .363479426091D-08 -.234923277319D+01
    -.502914190292D-06  .173674171092D-01  .106729567051D-04  .515279689407D+04
     .547200000000D+06  .234693288803D-06  .217161187532D+01  .763684511185D-07
     .984007623022D+00  .181687500000D+03  .165370992704D+01 -.742388066300D-08
    -.946467995620D-10  .100000000000D+01  .173800000000D+04  .000000000000D+00
     .240000000000D+01  .000000000000D+00 -.558793544769D-08  .290000000000D+02
     .540006000000D+06  .400000000000D+01
